satname,norad_id,inclination_deg,eccentricity,mean_motion_rev_per_day,perigee_km,apogee_km,l1,l2
STARLINK-1543,46053,53.16,0.0001543,15.31700657,469.6812553253658,471.7948181617048,1 46053U 20055AC  26133.38486737  .00000652  00000+0  32773-4 0  9999,2 46053  53.1600 173.1719 0001543  70.1606 289.9561 15.31700657318981
STARLINK-1548,46054,53.1592,0.000135,15.31701019,469.812359657074,471.66155562563745,1 46054U 20055AD  26133.39886228  .00000473  00000+0  27000-4 0  9998,2 46054  53.1592 173.1817 0001350  97.5758 262.5397 15.31701019318985
STARLINK-1554,46055,53.1576,0.0001133,15.31711808,469.928822642677,471.48077019374523,1 46055U 20055AE  26133.38022353  .00003882  00000+0  13674-3 0  9997,2 46055  53.1576 173.2100 0001133  94.0779 266.0352 15.31711808318985
STARLINK-1564,46058,53.1597,0.0001315,15.30192707,474.33562642860943,476.1380637498669,1 46058U 20055AH  26133.54053519  .00000343  00000+0  23707-4 0  9994,2 46058  53.1597 173.1416 0001315  90.0348 270.0804 15.30192707318998
STARLINK-1570,46059,53.1594,0.0001275,15.316915,469.89209835301153,471.6385684480292,1 46059U 20055AJ  26133.40816140  .00002724  00000+0  99533-4 0  9992,2 46059  53.1594 172.9651 0001275 101.0167 259.0978 15.31691500318941
STARLINK-1572,46060,53.1588,0.0001033,15.30194636,474.52313248002065,475.93903832646447,1 46060U 20055AK  26133.39089962  .00000632  00000+0  33447-4 0  9994,2 46060  53.1588 173.5848 0001033  81.6430 278.4688 15.30194636318949
STARLINK-1573,46061,53.1591,0.0001167,15.31710156,469.91046047307464,471.5089812977294,1 46061U 20055AL  26133.91616985  .00001201  00000+0  50452-4 0  9992,2 46061  53.1591 170.5661 0001167  89.3954 270.7181 15.31710156319067
STARLINK-1577,46063,53.1599,0.0001171,15.31695633,469.9510080358068,471.55501807686414,1 46063U 20055AN  26133.48738782  .00000637  00000+0  32294-4 0  9992,2 46063  53.1599 172.5577 0001171  75.9735 284.1397 15.31695633318999
STARLINK-1583,46064,53.1589,0.0001689,15.30187532,474.09475942048357,476.40983432496705,1 46064U 20055AP  26133.48567264  .00000853  00000+0  40955-4 0  9991,2 46064  53.1589 172.8925 0001689  83.0441 277.0752 15.30187532318985
STARLINK-1536,46070,53.1604,0.0001241,15.31704386,469.87697680650126,471.5768648316489,1 46070U 20055AV  26133.37222494  .00000953  00000+0  42451-4 0  9993,2 46070  53.1604 160.9797 0001241  77.6543 282.4597 15.31704386319140
STARLINK-1542,46073,53.1499,0.00012,15.29451041,476.6295677972839,478.2749092145241,1 46073U 20055AY  26132.48173534  .00031643  00000+0  11010-2 0  9992,2 46073  53.1499 168.0758 0001200  65.8083 294.3043 15.29451041318954
STARLINK-1549,46074,53.0487,0.0003645,15.27548633,480.64208516116196,485.6439582970024,1 46074U 20055AZ  26133.49589921  .00026877  00000+0  99343-3 0  9995,2 46074  53.0487 160.2243 0003645  28.5188 331.6009 15.27548633319142
STARLINK-1551,46075,53.1604,0.00013,15.30187155,474.36248178735786,476.14436329721775,1 46075U 20055BA  26133.33552252  .00001234  00000+0  53802-4 0  9997,2 46075  53.1604 160.7882 0001300  94.0221 266.0928 15.30187155319133
STARLINK-1552,46076,53.1592,0.0001203,15.31701727,469.910927850141,471.5587664165614,1 46076U 20055BB  26134.00002315  .00057908  00000+0  18633-2 0  9993,2 46076  53.1592 157.5753 0001203  87.8875 262.9707 15.31701727  5879
STARLINK-1559,46077,53.0226,0.0003118,15.35908274,456.0924236076489,460.3555783278525,1 46077U 20055BC  26133.36910320  .00029699  00000+0  84500-3 0  9999,2 46077  53.0226 131.3403 0003118  19.6774 340.4348 15.35908274319504
STARLINK-1566,46079,53.1607,0.0001192,15.31704266,469.9108939091475,471.5436631531493,1 46079U 20055BE  26133.35383288  .00001399  00000+0  56821-4 0  9990,2 46079  53.1607 160.4380 0001192  82.7576 277.3561 15.31704266319144
STARLINK-1568,46080,53.0581,0.0004728,15.51894702,407.984400023086,414.4043917910567,1 46080U 20055BF  26133.26460912  .00029040  00000+0  48193-3 0  9997,2 46080  53.0581  83.5586 0004728  21.0975 339.0228 15.51894702320208
STARLINK-1578,46082,53.1597,0.000152,15.31701395,469.6948081351984,471.7768654775873,1 46082U 20055BH  26133.48872445  .00000444  00000+0  26081-4 0  9991,2 46082  53.1597 160.3277 0001520  64.2890 295.8268 15.31701395319159
STARLINK-1579,46083,53.1601,0.0001166,15.31697345,469.9493296734581,471.5464896343883,1 46083U 20055BJ  26133.34452031  .00001135  00000+0  48337-4 0  9998,2 46083  53.1601 160.5332 0001166  77.6427 282.4705 15.31697345319135
STARLINK-1622,46128,53.0191,0.0004577,15.77040633,335.756229553861,341.9049416817352,1 46128U 20057M   26133.54676150  .00095549  00000+0  57293-3 0  9994,2 46128  53.0191 263.1139 0004577 344.9316  15.1566 15.77040633317551
STARLINK-1623,46129,53.0448,0.0001575,15.69661366,358.8046904442217,360.92716136588206,1 46129U 20057N   26133.44079978  .00066901  00000+0  55366-3 0  9998,2 46129  53.0448 300.2010 0001575 299.8088  60.2771 15.69661366317032
STARLINK-1624,46130,53.03,0.0011124,15.9952945,268.32158353306204,283.1250920125394,1 46130U 20057P   26134.00002315  .00397974  78166-4  77879-3 0  9997,2 46130  53.0300 264.3184 0011124 305.0508 162.9642 15.99529450  5975
STARLINK-1596,46141,53.0357,0.0003816,15.55331019,398.6035772530149,403.77756005341143,1 46141U 20057AA  26133.54568702  .00064695  00000+0  93555-3 0  9991,2 46141  53.0357 279.4693 0003816 299.8257  60.2373 15.55331019317332
STARLINK-1597,46142,53.0445,0.0001963,15.69382187,359.34216219926566,361.98781586015866,1 46142U 20057AB  26133.73117821  .00069972  00000+0  58533-3 0  9995,2 46142  53.0445 338.4586 0001963  68.7810 291.3416 15.69382187316518
STARLINK-1606,46144,53.0382,0.0004091,15.80312141,326.81310920423766,332.3013446206969,1 46144U 20057AD  26134.00002315  .00087205  00000+0  45215-3 0  9991,2 46144  53.0382 292.5748 0004091 264.3851 169.8983 15.80312141  5793
STARLINK-1608,46146,53.1614,0.0001412,15.33748084,463.6753579008364,465.60775856568125,1 46146U 20057AF  26133.91059030  .00036247  00000+0  11012-2 0  9995,2 46146  53.1614   5.8403 0001412 193.1373 166.9593 15.33748084316178
STARLINK-1667,46155,53.0153,0.0006302,15.80030329,326.12709498945605,334.5824780371777,1 46155U 20057AQ  26134.00002315  .00050329  00000+0  26680-3 0  9995,2 46155  53.0153 260.8087 0006302 340.4713  85.6929 15.80030329  6000
STARLINK-1545,46156,53.0413,0.0003972,15.75651142,340.1093715335455,345.4484671398677,1 46156U 20057AR  26133.71798852  .00104959  00000+0  66798-3 0  9994,2 46156  53.0413 297.4590 0003972 228.8368 131.2309 15.75651142318349
